{
    "links": {
        "self": "http://www.neowsapp.com/rest/v1/neo/3678251?api_key=iIulBulltgU6a56xZRHN4H3l9WmuAYTsLGpBGhQ2"
    },
    "id": "3678251",
    "neo_reference_id": "3678251",
    "name": "(2014 OF300)",
    "designation": "2014 OF300",
    "nasa_jpl_url": "http://ssd.jpl.nasa.gov/sbdb.cgi?sstr=3678251",
    "absolute_magnitude_h": 26.3,
    "estimated_diameter": {
        "kilometers": {
            "estimated_diameter_min": 0.0146067964,
            "estimated_diameter_max": 0.0326617897
        },
        "meters": {
            "estimated_diameter_min": 14.6067964271,
            "estimated_diameter_max": 32.6617897446
        },
        "miles": {
            "estimated_diameter_min": 0.0090762397,
            "estimated_diameter_max": 0.020295089
        },
        "feet": {
            "estimated_diameter_min": 47.92256199,
            "estimated_diameter_max": 107.1581062656
        }
    },
    "is_potentially_hazardous_asteroid": false,
    "close_approach_data": [
        {
            "close_approach_date": "2014-08-07",
            "close_approach_date_full": "2014-Aug-07 09:43",
            "epoch_date_close_approach": 1407404580000,
            "relative_velocity": {
                "kilometers_per_second": "15.5462642695",
                "kilometers_per_hour": "55966.5513701388",
                "miles_per_hour": "34775.4385444065"
            },
            "miss_distance": {
                "astronomical": "0.009809974",
                "lunar": "3.816079886",
                "kilometers": "1467551.21515538",
                "miles": "911894.040009044"
            },
            "orbiting_body": "Earth"
        }
    ],
    "orbital_data": {
        "orbit_id": "8",
        "orbit_determination_date": "2017-04-06 08:39:28",
        "first_observation_date": "2014-07-29",
        "last_observation_date": "2014-08-06",
        "data_arc_in_days": 8,
        "observations_used": 27,
        "orbit_uncertainty": "8",
        "minimum_orbit_intersection": ".005324",
        "jupiter_tisserand_invariant": "3.540",
        "epoch_osculation": "2456868.5",
        "eccentricity": ".614715919540203",
        "semi_major_axis": "2.034925145742512",
        "inclination": "4.735085854346901",
        "ascending_node_longitude": "311.726382160842",
        "orbital_period": "1060.281257568651",
        "perihelion_distance": ".7840242635819221",
        "perihelion_argument": "69.8770011195727",
        "aphelion_distance": "3.285826027903102",
        "perihelion_time": "2456921.256858445950",
        "mean_anomaly": "342.0873292770506",
        "mean_motion": ".3395325508493117",
        "equinox": "J2000",
        "orbit_class": {
            "orbit_class_type": "APO",
            "orbit_class_description": "Near-Earth asteroid orbits which cross the Earth’s orbit similar to that of 1862 Apollo",
            "orbit_class_range": "a (semi-major axis) > 1.0 AU; q (perihelion) < 1.017 AU"
        }
    },
    "is_sentry_object": false
}